STARLINK-31630          
1 59271U 24050T   26068.56880718 -.00002063  00000+0 -57526-4 0  9991
2 59271  53.1600 168.5079 0001409  92.3163 267.7999 15.30200807110710
STARLINK-31943          
1 59878U 24098W   26067.99443929  .00024142  00000+0  86464-3 0  9993
2 59878  43.0020 285.9160 0002992 274.9020  85.1490 15.28302612101048
